{
    "links": {
        "self": "http://www.neowsapp.com/rest/v1/neo/54053830?api_key=iIulBulltgU6a56xZRHN4H3l9WmuAYTsLGpBGhQ2"
    },
    "id": "54053830",
    "neo_reference_id": "54053830",
    "name": "(2020 RN2)",
    "designation": "2020 RN2",
    "nasa_jpl_url": "http://ssd.jpl.nasa.gov/sbdb.cgi?sstr=54053830",
    "absolute_magnitude_h": 25.776,
    "estimated_diameter": {
        "kilometers": {
            "estimated_diameter_min": 0.0185932358,
            "estimated_diameter_max": 0.0415757391
        },
        "meters": {
            "estimated_diameter_min": 18.5932357803,
            "estimated_diameter_max": 41.5757391265
        },
        "miles": {
            "estimated_diameter_min": 0.0115532975,
            "estimated_diameter_max": 0.0258339586
        },
        "feet": {
            "estimated_diameter_min": 61.0014316776,
            "estimated_diameter_max": 136.4033479559
        }
    },
    "is_potentially_hazardous_asteroid": false,
    "close_approach_data": [
        {
            "close_approach_date": "2020-08-27",
            "close_approach_date_full": "2020-Aug-27 01:47",
            "epoch_date_close_approach": 1598492820000,
            "relative_velocity": {
                "kilometers_per_second": "7.231744188",
                "kilometers_per_hour": "26034.2790767157",
                "miles_per_hour": "16176.6885740848"
            },
            "miss_distance": {
                "astronomical": "0.0562427591",
                "lunar": "21.8784332899",
                "kilometers": "8413796.964283117",
                "miles": "5228091.0038043346"
            },
            "orbiting_body": "Earth"
        },
        {
            "close_approach_date": "2020-11-09",
            "close_approach_date_full": "2020-Nov-09 00:26",
            "epoch_date_close_approach": 1604881560000,
            "relative_velocity": {
                "kilometers_per_second": "9.6166063964",
                "kilometers_per_hour": "34619.7830270319",
                "miles_per_hour": "21511.3868481021"
            },
            "miss_distance": {
                "astronomical": "0.0730415735",
                "lunar": "28.4131720915",
                "kilometers": "10926863.817048445",
                "miles": "6789638.336200741"
            },
            "orbiting_body": "Mars"
        }
    ],
    "orbital_data": {
        "orbit_id": "2",
        "orbit_determination_date": "2020-09-15 06:56:40",
        "first_observation_date": "2020-09-10",
        "last_observation_date": "2020-09-14",
        "data_arc_in_days": 4,
        "observations_used": 44,
        "orbit_uncertainty": "8",
        "minimum_orbit_intersection": ".0505594",
        "jupiter_tisserand_invariant": "3.368",
        "epoch_osculation": "2459105.5",
        "eccentricity": ".5435269971069254",
        "semi_major_axis": "2.311407497063548",
        "inclination": "3.081650311114185",
        "ascending_node_longitude": "173.9999404558333",
        "orbital_period": "1283.551218235597",
        "perihelion_distance": "1.055095121094163",
        "perihelion_argument": "149.812621176538",
        "aphelion_distance": "3.567719873032932",
        "perihelion_time": "2459080.446057782251",
        "mean_anomaly": "7.026925821306898",
        "mean_motion": ".2804718618824307",
        "equinox": "J2000",
        "orbit_class": {
            "orbit_class_type": "AMO",
            "orbit_class_description": "Near-Earth asteroid orbits similar to that of 1221 Amor",
            "orbit_class_range": "1.017 AU < q (perihelion) < 1.3 AU"
        }
    },
    "is_sentry_object": false
}